#dP2021  1  9  0  0  0.00000000     289 ORBIT ITRF  BHN ESOC                    
## 2139 518400.00000000   300.00000000 59223 0.0000000000000                    
+  109   G13G28G21G22G07G05G20G31G17G15G16G29G12G19G02G25G01                    
+        G30G24G27G06G09G03G32G26G08G10G04G18G23G14R09R11R20                    
+        R19R13R01R22R16R08R03R07R02R17R14R18R21R05R15R12R04                    
+        R24E11E12E19E18E14E26E24E30E08E09E01E02E07E03E04E05                    
+        E21E25E27E31E36E13E15E33C11C12C14C19C20C27C28C22C21                    
+        C29C30C23C24C26C25C32C33C35C34C36C37C06C07C08C09C10                    
+        C13C16C38C39C40J01J02  0  0  0  0  0  0  0  0  0  0                    
++         4  4  5  5  5  5  4  5  4  4  5  4  5  5  5  5  5                    
++         5  5  4  4  4  5  4  4  4  4  5  4  4  4  5  5  7                    
++         6  6  6  7  5  5  5  5  4  5  5  5  5  5  5  5  5                    
++         5  5  5  5  5  5  4  4  5  5  5  4  5  4  4  5  5                    
++         5  5  5  4  5  5  5  4  6  6  6  5  5  5  5  5  6                    
++         5  5  6  6  6  6  5  6  5  6  6  6  6  6  7  6  6                    
++         7  7  6  2  5  8  7  0  0  0  0  0  0  0  0  0  0                    
%c M  cc GPS ccc cccc cccc cccc cccc ccccc ccccc ccccc ccccc                    
%c cc cc ccc ccc cccc cccc cccc cccc ccccc ccccc ccccc ccccc                    
%f  0.0000000  0.000000000  0.00000000000  0.000000000000000                    
%f  0.0000000  0.000000000  0.00000000000  0.000000000000000                    
%i    0    0    0    0      0      0      0      0         0                    
%i    0    0    0    0      0      0      0      0         0                    
/* CCCCCCCCCCCCCCCCCCCCCCCCCCCCCCCCCCCCCCCCCCCCCCCCCCCCCCCCCCCCCCCCCCCCCCCCCCCCC
/* CCCCCCCCCCCCCCCCCCCCCCCCCCCCCCCCCCCCCCCCCCCCCCCCCCCCCCCCCCCCCCCCCCCCCCCCCCCCC
/* CCCCCCCCCCCCCCCCCCCCCCCCCCCCCCCCCCCCCCCCCCCCCCCCCCCCCCCCCCCCCCCCCCCCCCCCCCCCC
/* PCV:IGS        OL/AL:EOT11A   NONE     YN ORB:CoN CLK:CoN                    
*  2021  1  9 19 15  0.00000000                                                 
PG13  -9898.453833  20983.844386 -12955.823030     84.117138                    
PG28 -13679.271951   5479.194911 -21540.068485    631.935822                    
PG21  -9597.181188 -14770.365514 -19266.338722     85.353001                    
PG22 -10439.310464 -24481.652255  -1164.678087   -701.088326                    
PG07 -25900.274698  -6704.494645   2310.841878     15.342263                    
PG05   1351.059846  24096.895394  10731.231272    -30.557729                    
PG20  18590.242902   7822.500836 -17474.672374    525.237896                    
PG31  18869.904691  -8241.365846  16955.355599    -92.879986                    
PG17 -20999.321765  13271.312095  -8940.914375    378.127511                    
PG15   4271.925021  18628.808241 -18659.669069   -177.453803                    
PG16   1803.733964 -23628.695906  11273.207238   -262.686327                    
PG29  15701.532661   3947.115874  21027.001758   -272.634705                    
PG12   9561.649244  24513.712879   3940.340571     15.216861                    
PG19 -20270.327261  16939.445358  -2542.779951    -54.085571                    
PG02  -6711.281955  14577.435687  21825.067291   -564.149268                    
PG25  16224.237963  14896.802826  14790.146117     56.448161                    
PG01 -16944.814213 -13833.775867 -15539.326709    782.919735                    
PG30 -25155.541166   1178.442315  -8739.777651   -366.282918                    
PG24  13076.772961  14933.524382 -18060.430077      3.897177                    
PG27  10541.704560 -22299.235459  -9510.937512    -52.641382                    
PG06 -20353.138857   6890.869188  15706.274477     -4.639590                    
PG09 -16914.816857  -2168.066208  20301.811524   -310.970419                    
PG03 -13141.000279 -21915.185328   7352.744904    -52.023153                    
PG32  20299.295173 -14442.095764  -8876.719072     13.386834                    
PG26   8415.961860 -16230.965980  19132.184826     27.450581                    
PG08   -784.219202 -18984.799114 -18426.799504     -5.999556                    
PG10  14405.595653  -4267.133296 -21804.865057    -35.481406                    
PG04  -7697.184146 -13765.965314  21365.170404   -171.415445                    
PG18  26113.882642   4980.502893   -643.317156    340.001336                    
PG23  17014.500568   7270.238927 -19093.554439    115.326312                    
PG14 -15288.957395   1890.379812 -21644.548368     82.645275                    
PR09 -19272.377621 -16760.739499   -290.268373     17.681495                    
PR11  -7324.339080   8022.819758 -23070.275371      4.704515                    
PR20 -14063.921338  -5465.627876 -20564.675097   -430.783535                    
PR19   6671.922313 -11911.388920 -21540.356437   -127.225776                    
PR13  19165.929403  16837.535285   -159.572459    -49.108354                    
PR01  -3430.794850  25119.147496  -2773.605034     73.242872                    
PR22 -19751.626834  11485.684022  11433.188528    -91.626757                    
PR16  -9382.423735 -17876.326163  15479.722617    -10.047465                    
PR08  -9988.960025  20446.509435  11596.738601    -56.777519                    
PR03  11739.675345  -4631.537485 -22121.519739     28.826520                    
PR07 -11836.314733   5382.016704  21984.895965    -42.129367                    
PR02   6717.722780  14021.484088 -20207.345052    462.166564                    
PR17  24237.622257  -4666.547993   6530.542770    389.802326                    
PR14  18537.599821   5866.134700  16516.073063     59.653354                    
PR18  20323.427392 -11319.049600 -10382.810376     62.583802                    
PR21 -24367.902447   5192.686244  -5396.936423   -179.229569                    
PR05   2682.579929 -24745.845742   5522.594207     64.426075                    
PR15   7231.473416  -8272.633469  23037.491447    105.956303                    
PR12   8479.413778  17836.105889 -16137.925476    195.298878                    
PR04   9895.950842 -20460.888331 -11549.464069     69.287800                    
PR24  14845.154650   5361.582607  20066.608653     27.162339                    
PE11 -20270.369924 -11194.985178 -18443.427770   6496.424634                    
PE12   1504.191672 -16267.311845 -24673.914595   5414.934001                    
PE19  18556.749016 -21075.214814  -9357.380945    174.300584                    
PE18  14682.460352 -25019.727711  -8821.729832  -1408.797784                    
PE14 -21734.816860  15184.774416  -6206.154760  -1289.045295                    
PE26  29579.206623   -566.664091   1077.532591   2284.285179                    
PE24 -18098.716949 -22877.513811  -4934.058023   -680.838967                    
PE30   5177.969414  25778.664332 -13625.612555   3276.162017                    
PE08  -5144.695957  26883.213203 -11262.837271   6064.477077                    
PE09 -10314.085472 -15268.727279  23164.657767   5804.551034                    
PE01  10460.755058 -13712.612225  24056.171058  -1021.320927                    
PE02 -10356.076414  13845.750644 -24029.304984    189.844446                    
PE07  10265.053410  15501.795255 -23032.287168   -485.556461                    
PE03 -17739.930043  22550.474480   7246.012057   -385.502393                    
PE04   5476.893158 -26946.717315  10952.238393   -685.464930                    
PE05 -19783.851890   4856.642559  21469.968908   -314.258690                    
PE21  20162.920705   5758.963316  20895.930938   -641.949521                    
PE25 -20193.122765  -5920.904648 -20805.962035   -523.986603                    
PE27  18456.546187  22492.322754   5497.270355     54.561959                    
PE31  -5898.268817 -25901.101156  13055.319733   -477.214264                    
PE36 -29548.585345    317.324392  -1725.523909    456.451907                    
PE13  19954.153780  11256.000083  18753.919086    409.955279                    
PE15  -1392.977984  16206.160349  24744.419394    835.065163                    
PE33  21905.668098 -11607.465373 -16158.103805   -464.734899                    
PC11  -8434.167837  18512.200075  19151.211890   -875.021253                    
PC12 -22899.813500  15358.540051   4263.389125    719.186492                    
PC14  -2504.865306  27623.701051   2829.113999   -133.080608                    
PC19  -4052.613411 -26831.157223   6555.985929    684.879122                    
PC20   7690.973418 -24719.453743 -10437.866051   -909.388219                    
PC27  25723.265842  -9497.160083   5121.018326    463.602819                    
PC28  19316.964393   5078.017150  19498.303438   -123.783525                    
PC22 -13739.265021 -13482.883322  20209.552486   -839.671252                    
PC21 -15403.718869   7648.990251  21985.456735   -786.384572                    
PC29  -2250.306560 -16555.182806 -22353.097281    336.271964                    
PC30  16698.291164 -18987.163322 -11782.200305    428.942328                    
PC23  23892.234609  14422.457385    493.686611   -883.189239                    
PC24  -8504.717970  13812.891477 -22717.299685   -739.545597                    
PC26 -22264.743358    798.869147 -16788.838338    965.237768                    
PC25  12062.458509  19852.703218 -15487.723721   -891.589472                    
PC32  15351.346959  -7760.071960 -21964.728805   -882.651905                    
PC33   4128.392776  26830.102432  -6442.993663   -907.263320                    
PC35 -19334.744164  -4654.764266 -19588.965400   -473.472771                    
PC34 -16238.098901  19089.048767  12298.196381   -766.973578                    
PC36 -11264.290679 -20118.544254  15735.263968   -781.233823                    
PC37  22709.558317    425.470994  16243.673981   -860.752235                    
PC06 -24355.224307  31437.363712 -14289.211389    120.892258                    
PC07  -8314.454217  35993.235164 -19655.708181   -211.446052                    
PC08 -10943.093791  18618.036552  36297.361608   -878.882050                    
PC09  -9918.672118  30603.881098 -27221.913854    814.615530                    
PC10   1342.568997  40753.034685  -9575.176389   -107.114781                    
PC13   4498.387075  24828.049121  33948.815200     90.611307                    
PC16 -22752.187737  31813.583277 -15943.452042   -654.874895                    
PC38 -10302.166087  21427.678986  34841.786176    122.857172                    
PC39 -18910.327581  33406.960699 -17584.968073     27.189517                    
PC40  -4869.027736  39080.573968 -14848.649918    119.519453                    
PJ01 -29371.386801  25814.143678  20691.195341   -336.108230                    
PJ02 -21748.168044  18738.888721 -26397.797228      0.601929                    
EOF                                                                             
